      2.10          N: GNSS NAV DATA                        RINEX VERSION / TYPE
fic2rin                                 09/02/2021 00:17:18 PGM / RUN BY / DATE
                                                            END OF HEADER
 2 21  9  1 20  0  0.0-6.298874504864e-04-2.273736754432e-12 0.000000000000e+00
    5.500000000000e+01-2.215625000000e+01 4.630550023852e-09-4.925418508365e-01
   -1.290813088417e-06 2.025312453043e-02 3.710389137268e-06 5.153748289108e+03
    3.312000000000e+05-2.793967723846e-07 1.006764331935e+00 8.381903171539e-08
    9.637496557216e-01 3.157187500000e+02-1.496095977283e+00-8.624644965367e-09
    2.114373786441e-10 1.000000000000e+00 2.173000000000e+03 0.000000000000e+00
    2.400000000000e+00 0.000000000000e+00-1.769512891769e-08 5.500000000000e+01
    3.240000000000e+05 4.000000000000e+00
 5 21  9  1 20  0  0.0-5.303137004375e-05-1.250555214938e-12 0.000000000000e+00
    7.100000000000e+01-8.781250000000e+01 4.596977196838e-09 1.843798911431e+00
   -4.557892680168e-06 6.115696742199e-03 8.257105946541e-06 5.153583713531e+03
    3.312000000000e+05-1.247972249985e-07 2.091522991413e+00-1.117587089539e-07
    9.573749331373e-01 2.209062500000e+02 9.811123574621e-01-8.001761876929e-09
    1.132190017402e-10 1.000000000000e+00 2.173000000000e+03 0.000000000000e+00
    2.400000000000e+00 0.000000000000e+00-1.117587089539e-08 7.100000000000e+01
    3.240000000000e+05 4.000000000000e+00
16 21  9  1 20  0  0.0-3.835018724203e-04-6.366462912410e-12 0.000000000000e+00
    2.500000000000e+01 6.409375000000e+01 4.006595462212e-09 2.355816685747e+00
    3.095716238022e-06 1.219890697394e-02 9.359791874886e-06 5.153753925323e+03
    3.312000000000e+05-1.266598701477e-07-9.218298259352e-01-2.048909664154e-07
    9.722924360655e-01 2.058750000000e+02 6.802141296717e-01-7.642818354062e-09
   -3.264421690552e-10 1.000000000000e+00 2.173000000000e+03 0.000000000000e+00
    2.400000000000e+00 0.000000000000e+00-1.024454832077e-08 2.500000000000e+01
    3.240000000000e+05 4.000000000000e+00
10 21  9  1 20  0  0.0-1.945313997567e-04-7.730704965070e-12 0.000000000000e+00
    2.000000000000e+01-9.028125000000e+01 4.188388748917e-09-2.727802570761e+00
   -4.719942808151e-06 6.866458104923e-03 9.052455425262e-06 5.153680339813e+03
    3.312000000000e+05-3.352761268616e-08 2.126830707973e+00-1.247972249985e-07
    9.702808710415e-01 2.118750000000e+02-2.584079177384e+00-7.722107371054e-09
    1.828647599084e-10 1.000000000000e+00 2.173000000000e+03 0.000000000000e+00
    2.400000000000e+00 0.000000000000e+00 2.328306436539e-09 2.000000000000e+01
    3.240000000000e+05 4.000000000000e+00
 8 21  9  1 20  0  0.0-3.486592322588e-05-1.364242052659e-12 0.000000000000e+00
    3.900000000000e+01 8.218750000000e+01 4.192674641728e-09 1.556015810053e+00
    4.282221198082e-06 6.443037767895e-03 5.505979061127e-06 5.153652196884e+03
    3.312000000000e+05-3.352761268616e-08 1.634257677963e-02 4.656612873077e-08
    9.667615377957e-01 2.754375000000e+02 5.654085334778e-02-8.062121534008e-09
    5.821671067396e-11 1.000000000000e+00 2.173000000000e+03 0.000000000000e+00
    2.400000000000e+00 0.000000000000e+00 5.122274160385e-09 3.900000000000e+01
    3.240000000000e+05 4.000000000000e+00
 6 21  9  1 20  0  0.0 6.646057590842e-05 6.934897101019e-12 0.000000000000e+00
    7.100000000000e+01-3.475000000000e+01 4.065169330620e-09-4.616980810411e-01
   -2.074986696243e-06 2.158973831683e-03 3.172084689140e-06 5.153568788528e+03
    3.312000000000e+05-2.980232238770e-08 1.084341174842e+00-4.656612873077e-08
    9.845942443938e-01 3.293750000000e+02-9.964519356628e-01-8.046406593704e-09
    1.007184810433e-10 1.000000000000e+00 2.173000000000e+03 0.000000000000e+00
    2.400000000000e+00 0.000000000000e+00 3.725290298462e-09 7.100000000000e+01
    3.240000000000e+05 4.000000000000e+00
 7 21  9  1 20  0  0.0 2.369661815464e-04 7.503331289627e-12 0.000000000000e+00
    9.200000000000e+01 1.187500000000e+01 4.938777148463e-09-1.374960849507e+00
    6.016343832016e-07 1.526726980228e-02 6.208196282387e-06 5.153733732224e+03
    3.312000000000e+05 3.613531589508e-07-2.052355715139e+00 3.725290298462e-09
    9.511854701099e-01 2.530000000000e+02-2.308114574237e+00-8.058192798932e-09
   -2.428672592533e-10 1.000000000000e+00 2.173000000000e+03 0.000000000000e+00
    3.400000000000e+00 0.000000000000e+00-1.117587089539e-08 9.200000000000e+01
    3.240000000000e+05 4.000000000000e+00
 4 21  9  1 20  0  0.0-2.042599953711e-04-1.136868377216e-13 0.000000000000e+00
    9.700000000000e+01-7.250000000000e+00 4.685909472653e-09 9.806580438638e-01
   -3.222376108170e-07 1.358360867016e-03 8.344650268555e-06 5.153700147629e+03
    3.312000000000e+05 3.166496753693e-08-3.072844256503e+00-8.754432201385e-08
    9.610924566728e-01 2.157187500000e+02-3.031684370234e+00-7.969974838586e-09
    2.371527355062e-10 1.000000000000e+00 2.173000000000e+03 0.000000000000e+00
    2.400000000000e+00 0.000000000000e+00-4.190951585770e-09 3.530000000000e+02
    3.240000000000e+05 4.000000000000e+00
30 21  9  1 20  0  0.0-4.684925079346e-04-3.979039320257e-12 0.000000000000e+00
    3.000000000000e+01 8.000000000000e+00 5.290934674381e-09-1.498258889959e+00
    3.408640623093e-07 5.369558930397e-03 6.247311830521e-06 5.153648426056e+03
    3.312000000000e+05 3.539025783539e-08-2.036675993856e+00-8.381903171539e-08
    9.363726609141e-01 2.456250000000e+02-2.731857017496e+00-8.296417007641e-09
   -2.142946405177e-10 1.000000000000e+00 2.173000000000e+03 0.000000000000e+00
    2.400000000000e+00 0.000000000000e+00 3.725290298462e-09 3.000000000000e+01
    3.240000000000e+05 4.000000000000e+00
27 21  9  1 20  0  0.0-1.868833787739e-04-5.456968210638e-12 0.000000000000e+00
    2.200000000000e+01 8.178125000000e+01 4.073383958506e-09 1.427738031568e+00
    4.177913069725e-06 9.457810199820e-03 5.299225449562e-06 5.153694597244e+03
    3.312000000000e+05-1.098960638046e-07 3.438459623359e-02 4.842877388000e-08
    9.753893575676e-01 2.850312500000e+02 6.345144033746e-01-8.078907947515e-09
    5.035924052165e-11 1.000000000000e+00 2.173000000000e+03 0.000000000000e+00
    2.400000000000e+00 0.000000000000e+00 1.862645149231e-09 2.200000000000e+01
    3.240000000000e+05 4.000000000000e+00
21 21  9  1 20  0  0.0 1.404630020261e-04 2.046363078989e-12 0.000000000000e+00
    2.400000000000e+01-3.375000000000e+01 4.586619622546e-09 1.604527158105e+00
   -2.097338438034e-06 2.407399087679e-02 1.695007085800e-06 5.153650468826e+03
    3.312000000000e+05 5.457550287247e-07 1.006209175005e+00-9.313225746155e-08
    9.579414979028e-01 3.424062500000e+02-1.090976901030e+00-8.163911488254e-09
   -7.143154683922e-12 1.000000000000e+00 2.173000000000e+03 0.000000000000e+00
    2.400000000000e+00 0.000000000000e+00-1.024454832077e-08 2.400000000000e+01
    3.240000000000e+05 4.000000000000e+00
26 21  9  1 20  0  0.0 1.294119283557e-04 4.320099833421e-12 0.000000000000e+00
    2.600000000000e+01 5.562500000000e+01 4.715553564591e-09-2.953997883080e+00
    2.807006239891e-06 6.046701106243e-03 8.689239621162e-06 5.153620187759e+03
    3.312000000000e+05-4.097819328308e-08-1.059119731308e+00-5.029141902924e-08
    9.404486301003e-01 2.020000000000e+02 2.954778763881e-01-8.017476817234e-09
   -3.607293115380e-10 1.000000000000e+00 2.173000000000e+03 0.000000000000e+00
    2.400000000000e+00 0.000000000000e+00 6.984919309616e-09 2.600000000000e+01
    3.240000000000e+05 4.000000000000e+00
20 21  9  1 20  0  0.0 5.193469114602e-04-2.273736754432e-13 0.000000000000e+00
    1.800000000000e+01-8.496875000000e+01 5.035209736696e-09 4.191433565118e-01
   -4.367902874947e-06 5.517383571714e-03 6.973743438721e-06 5.153650121689e+03
    3.312000000000e+05 9.872019290924e-08 1.980567640535e+00-2.048909664154e-08
    9.393599762049e-01 2.359687500000e+02 2.975557341301e+00-8.313203421148e-09
    9.036090675161e-11 1.000000000000e+00 2.173000000000e+03 0.000000000000e+00
    2.400000000000e+00 0.000000000000e+00-8.381903171539e-09 1.800000000000e+01
    3.240000000000e+05 4.000000000000e+00
12 21  9  1 20  0  0.0-9.130453690886e-05-5.456968210638e-12 0.000000000000e+00
    7.800000000000e+01 4.990625000000e+01 3.990523364173e-09-2.109239619851e+00
    2.631917595863e-06 8.242834010161e-03 8.668750524521e-06 5.153689987183e+03
    3.312000000000e+05 1.545995473862e-07-9.405315482970e-01-7.078051567078e-08
    9.722522350767e-01 2.200937500000e+02 1.231561834808e+00-7.575315542299e-09
   -3.264421690552e-10 1.000000000000e+00 2.173000000000e+03 0.000000000000e+00
    2.400000000000e+00 0.000000000000e+00-1.257285475731e-08 7.800000000000e+01
    3.240000000000e+05 4.000000000000e+00
 9 21  9  1 20  0  0.0-3.601834177971e-04-7.958078640513e-13 0.000000000000e+00
    4.800000000000e+01-7.625000000000e+00 4.738411659579e-09 1.906144489129e+00
   -4.749745130539e-07 2.095290925354e-03 8.614733815193e-06 5.153718088150e+03
    3.312000000000e+05-1.117587089539e-08-3.124435983380e+00-4.284083843231e-08
    9.540072679234e-01 2.070937500000e+02 1.810233779000e+00-7.937116327040e-09
    2.567964108870e-10 1.000000000000e+00 2.173000000000e+03 0.000000000000e+00
    2.400000000000e+00 0.000000000000e+00 1.396983861923e-09 4.800000000000e+01
    3.240000000000e+05 4.000000000000e+00
29 21  9  1 20  0  0.0-4.052538424730e-04-5.798028723802e-12 0.000000000000e+00
    8.100000000000e+01 6.490625000000e+01 3.848731743697e-09 1.496230103464e+00
    3.417953848839e-06 1.964739058167e-03 4.852190613747e-06 5.153586643219e+03
    3.312000000000e+05 1.098960638046e-07 1.083558551706e-01 5.029141902924e-08
    9.835901442375e-01 2.965937500000e+02 2.322754143211e+00-7.847826893491e-09
    1.735786588193e-10 1.000000000000e+00 2.173000000000e+03 0.000000000000e+00
    2.400000000000e+00 0.000000000000e+00-1.024454832077e-08 8.100000000000e+01
    3.240000000000e+05 4.000000000000e+00
